0 COSMOS 2251 DEB
1 38487U 93036BTX 13281.67332053  .00001786  00000-0  37924-3 0   671
2 38487 074.0056 032.7753 0087806 213.4277 146.1393 14.57516131147054
0 COSMOS 2251 DEB
1 38487U 93036BTX 13288.94889958  .00002182  00000-0  46195-3 0   692
2 38487 074.0073 018.9224 0086689 198.1898 161.6848 14.57552802148118
0 COSMOS 2251 DEB
1 38487U 93036BTX 13290.93934538  .00002503  00000-0  52745-3 0   706
2 38487 074.0079 015.1324 0088619 191.0361 169.0807 14.57570212148400
0 COSMOS 2251 DEB
1 38487U 93036BTX 13293.89063807  .00002833  00000-0  59658-3 0   713
2 38487 074.0126 009.5167 0087465 186.3462 173.8170 14.57593383148839
